NORAD_CAT_ID,OBJECT_NAME,OBJECT_TYPE,EPOCH,MEAN_MOTION,ECCENTRICITY,INCLINATION,RA_OF_ASC_NODE,ARG_OF_PERICENTER,MEAN_ANOMALY,BSTAR,MEAN_MOTION_DOT,MEAN_MOTION_DDOT,TLE_LINE0,TLE_LINE1,TLE_LINE2,SEMIMAJOR_AXIS,PERIOD,APOGEE,PERIGEE,DECAYED
49742.0,STARLINK-3202,PAYLOAD,2022-12-19 06:33:52,15.08828963,0.0002651,53.2179,30.2595,28.7121,331.4017,0.00011489,1.5399999999999998e-05,0.0,0 STARLINK-3202,1 49742U 21115U   22353.27352611  .00001540  00000-0  11489-3 0  9994,2 49742  53.2179  30.2595 0002651  28.7121 331.4017 15.08828963 59041,6917.9140000000025,95.438,541.613,537.945,0.0
49742.0,STARLINK-3202,PAYLOAD,2022-12-19 19:16:56,15.08846461,0.0002644,53.218,27.8809,29.4998,330.6143,0.00018626,2.678e-05,0.0,0 STARLINK-3202,1 49742U 21115U   22353.80343384  .00002678  00000-0  18626-3 0  9993,2 49742  53.2180  27.8809 0002644  29.4998 330.6143 15.08846461 58015,6917.861,95.437,541.555,537.8969999999998,0.0
49742.0,STARLINK-3202,PAYLOAD,2022-12-20 11:10:48,15.08845646,0.0002667,53.2182,24.9072,29.4549,330.6593,3.393e-05,2.52e-06,0.0,0 STARLINK-3202,1 49742U 21115U   22354.46583726  .00000252  00000-0  33930-4 0  9994,2 49742  53.2182  24.9072 0002667  29.4549 330.6593 15.08845646 59221,6917.863,95.437,541.573,537.883,0.0
49742.0,STARLINK-3202,PAYLOAD,2022-12-21 09:26:13,15.08826932,0.0002767,53.2184,20.744,32.2193,327.8968,-5.298e-05,-1.131e-05,0.0,0 STARLINK-3202,1 49742U 21115U   22355.39321326 -.00001131  00000-0 -52980-4 0  9998,2 49742  53.2184  20.7440 0002767  32.2193 327.8968 15.08826932 59360,6917.92,95.438,541.7,537.871,0.0
49742.0,STARLINK-3202,PAYLOAD,2022-12-22 09:17:01,15.08829334,0.0002625,53.2176,16.2829,26.6016,333.511,-0.00010252,-1.919e-05,0.0,0 STARLINK-3202,1 49742U 21115U   22356.38681784 -.00001919  00000-0 -10252-3 0  9994,2 49742  53.2176  16.2829 0002625  26.6016 333.5110 15.08829334 58402,6917.913000000001,95.438,541.594,537.962,0.0
49742.0,STARLINK-3202,PAYLOAD,2022-12-23 07:32:25,15.08825098,0.0003128,53.2174,12.1213,24.5531,335.5609,0.0001198,1.618e-05,0.0,0 STARLINK-3202,1 49742U 21115U   22357.31418398  .00001618  00000-0  11980-3 0  9990,2 49742  53.2174  12.1213 0003128  24.5531 335.5609 15.08825098 59656,6917.926,95.438,541.955,537.627,0.0
49742.0,STARLINK-3202,PAYLOAD,2022-12-23 23:26:15,15.0884179,0.0002707,53.218,9.1467,25.7591,334.3535,0.00024456,3.606e-05,0.0,0 STARLINK-3202,1 49742U 21115U   22357.97657194  .00003606  00000-0  24456-3 0  9992,2 49742  53.2180   9.1467 0002707  25.7591 334.3535 15.08841790 59754,6917.875,95.437,541.613,537.867,0.0
49742.0,STARLINK-3202,PAYLOAD,2022-12-24 10:33:57,15.08857312,0.0002758,53.218,7.0662,28.6076,331.5067,0.00010512,1.386e-05,0.0,0 STARLINK-3202,1 49742U 21115U   22358.44024500  .00001386  00000-0  10512-3 0  9995,2 49742  53.2180   7.0662 0002758  28.6076 331.5067 15.08857312 59828,6917.8269999999975,95.436,541.6,537.785,0.0
49742.0,STARLINK-3202,PAYLOAD,2022-12-25 07:13:58,15.08842604,0.000294,53.2181,3.1992,27.5663,332.5485,6.9873e-05,8.24e-06,0.0,0 STARLINK-3202,1 49742U 21115U   22359.30137502  .00000824  00000-0  69873-4 0  9999,2 49742  53.2181   3.1992 0002940  27.5663 332.5485 15.08842604 59952,6917.871999999999,95.437,541.771,537.7040000000002,0.0
49742.0,STARLINK-3202,PAYLOAD,2022-12-26 07:04:45,15.08843688,0.0002713,53.2182,358.7387,29.5899,330.5246,-0.00011186,-2.069e-05,0.0,0 STARLINK-3202,1 49742U 21115U   22360.29497671 -.00002069  00000-0 -11186-3 0  9993,2 49742  53.2182 358.7387 0002713  29.5899 330.5246 15.08843688 58990,6917.869000000002,95.437,541.611,537.857,0.0
49742.0,STARLINK-3202,PAYLOAD,2022-12-27 06:55:32,15.08858385,0.0002819,53.2167,354.2768,26.2341,333.8794,-0.00013824,-2.489e-05,0.0,0 STARLINK-3202,1 49742U 21115U   22361.28856523 -.00002489  00000-0 -13824-3 0  9995,2 49742  53.2167 354.2768 0002819  26.2341 333.8794 15.08858385 60256,6917.824000000001,95.436,541.639,537.739,0.0
49742.0,STARLINK-3202,PAYLOAD,2022-12-28 00:24:46,15.08843276,0.0002853999999999,53.2168,351.0059,26.8271,333.2868,0.0002275,3.334e-05,0.0,0 STARLINK-3202,1 49742U 21115U   22362.01720164  .00003334  00000-0  22750-3 0  9994,2 49742  53.2168 351.0059 0002854  26.8271 333.2868 15.08843276 60363,6917.87,95.437,541.71,537.761,0.0
49742.0,STARLINK-3202,PAYLOAD,2022-12-28 22:40:10,15.08835271,0.0001643,53.217,346.843,38.6897,321.4212,-2.6461e-05,-7.09e-06,0.0,0 STARLINK-3202,1 49742U 21115U   22362.94457143 -.00000709  00000-0 -26461-4 0  9999,2 49742  53.2170 346.8430 0001643  38.6897 321.4212 15.08835271 60505,6917.895,95.438,540.896,538.623,0.0
49742.0,STARLINK-3202,PAYLOAD,2022-12-29 16:09:26,15.08826366,0.0002744,53.217,343.5716,26.3042,333.8089,-0.00014252,-2.555e-05,0.0,0 STARLINK-3202,1 49742U 21115U   22363.67322835 -.00002555  00000-0 -14252-3 0  9994,2 49742  53.2170 343.5716 0002744  26.3042 333.8089 15.08826366 60611,6917.922,95.438,541.685,537.889,0.0
49742.0,STARLINK-3202,PAYLOAD,2022-12-30 04:52:31,15.08834704,0.0002683999999999,53.2171,341.1933,26.4727,333.6402,-7.4809e-05,-1.479e-05,0.0,0 STARLINK-3202,1 49742U 21115U   22364.20314429 -.00001479  00000-0 -74809-4 0  9993,2 49742  53.2171 341.1933 0002684  26.4727 333.6402 15.08834704 60691,6917.897,95.438,541.618,537.905,0.0
49742.0,STARLINK-3202,PAYLOAD,2022-12-30 08:03:17,15.08836908,0.0002692,53.2171,340.598,27.3629,332.7504,-5.2176e-05,-1.119e-05,0.0,0 STARLINK-3202,1 49742U 21115U   22364.33562292 -.00001119  00000-0 -52176-4 0  9994,2 49742  53.2171 340.5980 0002692  27.3629 332.7504 15.08836908 59606,6917.89,95.438,541.617,537.893,0.0
49742.0,STARLINK-3202,PAYLOAD,2022-12-30 16:00:12,15.08850426,0.0002741,53.2179,339.1119,25.608,334.5048,3.8153e-05,3.19e-06,0.0,0 STARLINK-3202,1 49742U 21115U   22364.66681188  .00000319  00000-0  38153-4 0  9994,2 49742  53.2179 339.1119 0002741  25.6080 334.5048 15.08850426 60762,6917.849,95.437,541.61,537.817,0.0
49742.0,STARLINK-3202,PAYLOAD,2022-12-31 04:43:16,15.088537900000002,0.0002766,53.217,336.7337,22.6302,337.4812,0.0003656,5.537e-05,0.0,0 STARLINK-3202,1 49742U 21115U   22365.19672086  .00005537  00000-0  36560-3 0  9996,2 49742  53.2170 336.7337 0002766  22.6302 337.4812 15.08853790 60846,6917.8380000000025,95.437,541.617,537.79,0.0
49742.0,STARLINK-3202,PAYLOAD,2022-12-31 07:54:02,15.08854765,0.0002717,53.2168,336.1379,27.515,332.5985,0.00035997,5.448e-05,0.0,0 STARLINK-3202,1 49742U 21115U   22365.32919979  .00005448  00000-0  35997-3 0  9990,2 49742  53.2168 336.1379 0002717  27.5150 332.5985 15.08854765 59752,6917.835,95.437,541.58,537.821,0.0
49742.0,STARLINK-3202,PAYLOAD,2022-12-31 15:50:58,15.08858696,0.0002652,53.2165,334.6512,24.3358,335.7759,0.00033906,5.115e-05,0.0,0 STARLINK-3202,1 49742U 21115U   22365.66039485  .00005115  00000-0  33906-3 0  9991,2 49742  53.2165 334.6512 0002652  24.3358 335.7759 15.08858696 59801,6917.823,95.436,541.523,537.854,0.0
49742.0,STARLINK-3202,PAYLOAD,2023-01-01 07:44:51,15.08837076,0.0002671,53.218,331.6782,21.6523,338.4582,-2.2256e-05,-6.43e-06,0.0,0 STARLINK-3202,1 49742U 21115U   23001.32281906 -.00000643  00000-0 -22256-4 0  9999,2 49742  53.2180 331.6782 0002671  21.6523 338.4582 15.08837076 61018,6917.889,95.438,541.602,537.9069999999998,0.0
49742.0,STARLINK-3202,PAYLOAD,2023-01-02 13:57:11,15.08849896,0.0002735,53.2183,326.0271,27.4573,332.6563,-0.00013787,-2.483e-05,0.0,0 STARLINK-3202,1 49742U 21115U   23002.58137746 -.00002483  00000-0 -13787-3 0  9992,2 49742  53.2183 326.0271 0002735  27.4573 332.6563 15.08849896 61201,6917.85,95.437,541.607,537.823,0.0
49742.0,STARLINK-3202,PAYLOAD,2023-01-03 05:51:03,15.08832897,0.0002786,53.2171,323.0537,25.0844,335.0283,0.00020849,3.031e-05,0.0,0 STARLINK-3202,1 49742U 21115U   23003.24378814  .00003031  00000-0  20849-3 0  9994,2 49742  53.2171 323.0537 0002786  25.0844 335.0283 15.08832897 61301,6917.901999999999,95.438,541.694,537.84,0.0
49742.0,STARLINK-3202,PAYLOAD,2023-01-04 02:31:04,15.08837273,0.0002776,53.2174,319.1892,25.6736,334.4393,0.00019579,2.829e-05,0.0,0 STARLINK-3202,1 49742U 21115U   23004.10491088  .00002829  00000-0  19579-3 0  9991,2 49742  53.2174 319.1892 0002776  25.6736 334.4393 15.08837273 60328,6917.889,95.438,541.674,537.8330000000002,0.0
49742.0,STARLINK-3202,PAYLOAD,2023-01-05 05:32:36,15.08857793,0.0002912,53.2176,314.1337,27.1094,333.005,0.00024276,3.579e-05,0.0,0 STARLINK-3202,1 49742U 21115U   23005.23097456  .00003579  00000-0  24276-3 0  9990,2 49742  53.2176 314.1337 0002912  27.1094 333.0050 15.08857793 61601,6917.826,95.436,541.705,537.677,0.0
49742.0,STARLINK-3202,PAYLOAD,2023-01-06 05:23:22,15.08843696,0.0002672,53.2167,309.6741,28.3209,331.7928,-9.6751e-05,-1.828e-05,0.0,0 STARLINK-3202,1 49742U 21115U   23006.22457051 -.00001828  00000-0 -96751-4 0  9996,2 49742  53.2167 309.6741 0002672  28.3209 331.7928 15.08843696 61755,6917.8690000000015,95.437,541.5830000000002,537.886,0.0
49742.0,STARLINK-3202,PAYLOAD,2023-01-06 13:20:19,15.08825104,0.0002804,53.2169,308.1856,34.3361,325.7811,-0.00046905,-7.743e-05,0.0,0 STARLINK-3202,1 49742U 21115U   23006.55577761 -.00007743  00000-0 -46905-3 0  9990,2 49742  53.2169 308.1856 0002804  34.3361 325.7811 15.08825104 61805,6917.926,95.438,541.731,537.851,0.0
49742.0,STARLINK-3202,PAYLOAD,2023-01-06 19:41:52,15.08823002,0.0002643,53.2169,306.9954,25.6337,334.4786,-0.00039257,-6.528e-05,0.0,0 STARLINK-3202,1 49742U 21115U   23006.82074222 -.00006528  00000-0 -39257-3 0  9996,2 49742  53.2169 306.9954 0002643  25.6337 334.4786 15.08823002 60731,6917.932,95.439,541.626,537.969,0.0
49742.0,STARLINK-3202,PAYLOAD,2023-01-07 05:14:11,15.08831307,0.000274,53.2166,305.2115,28.3851,331.7290000000001,-5.8603e-05,-1.221e-05,0.0,0 STARLINK-3202,1 49742U 21115U   23007.21818376 -.00001221  00000-0 -58603-4 0  9998,2 49742  53.2166 305.2115 0002740  28.3851 331.7290 15.08831307 61905,6917.906999999998,95.438,541.6669999999998,537.876,0.0
